NORAD_CAT_ID,OBJECT_NAME,OBJECT_TYPE,EPOCH,MEAN_MOTION,ECCENTRICITY,INCLINATION,RA_OF_ASC_NODE,ARG_OF_PERICENTER,MEAN_ANOMALY,BSTAR,MEAN_MOTION_DOT,MEAN_MOTION_DDOT,TLE_LINE0,TLE_LINE1,TLE_LINE2,SEMIMAJOR_AXIS,PERIOD,APOGEE,PERIGEE,DECAYED
54781.0,STARLINK-5443,PAYLOAD,2023-05-30 07:39:07,15.08838139,0.0001,53.2176,262.8276,84.1965,275.9141,9.9787e-06,-1.29e-06,0.0,0 STARLINK-5443,1 54781U 22175Z   23150.31883200 -.00000129  00000-0  99787-5 0  9996,2 54781  53.2176 262.8276 0001000  84.1965 275.9141 15.08838139 24830,6917.886,95.438,540.443,539.059,0.0
54781.0,STARLINK-5443,PAYLOAD,2023-05-30 12:25:16,15.08842443,7.56e-05,53.2175,261.9353,70.7802,289.3272,4.4498e-05,4.21e-06,0.0,0 STARLINK-5443,1 54781U 22175Z   23150.51754782  .00000421  00000-0  44498-4 0  9992,2 54781  53.2175 261.9353 0000756  70.7802 289.3272 15.08842443 27024,6917.873,95.437,540.261,539.215,0.0
54781.0,STARLINK-5443,PAYLOAD,2023-05-30 17:11:25,15.08847159,9.84e-05,53.2184,261.0393,112.1462,247.9634,-7.1853e-05,-1.431e-05,0.0,0 STARLINK-5443,1 54781U 22175Z   23150.71626703 -.00001431  00000-0 -71853-4 0  9994,2 54781  53.2184 261.0393 0000984 112.1462 247.9634 15.08847159 27059,6917.859,95.437,540.404,539.043,0.0
54781.0,STARLINK-5443,PAYLOAD,2023-05-31 13:51:26,15.08844321,0.0001174,53.2173,257.1749,102.4926,257.6197,9.8004e-05,1.272e-05,0.0,0 STARLINK-5443,1 54781U 22175Z   23151.57738428  .00001272  00000-0  98004-4 0  9995,2 54781  53.2173 257.1749 0001174 102.4926 257.6197 15.08844321 27181,6917.867,95.437,540.544,538.92,0.0
54781.0,STARLINK-5443,PAYLOAD,2023-06-01 10:31:27,15.0883381,0.000106,53.2176,253.3109,113.0416,247.0688,9.7707e-05,1.267e-05,0.0,0 STARLINK-5443,1 54781U 22175Z   23152.43851170  .00001267  00000-0  97707-4 0  9994,2 54781  53.2176 253.3109 0001060 113.0416 247.0688 15.08833810 27312,6917.899,95.438,540.498,539.031,0.0
54781.0,STARLINK-5443,PAYLOAD,2023-06-01 13:42:13,15.08841235,0.0001178,53.2179,252.7154,115.4048,244.7066,7.0049e-05,8.27e-06,0.0,0 STARLINK-5443,1 54781U 22175Z   23152.57098803  .00000827  00000-0  70049-4 0  9996,2 54781  53.2179 252.7154 0001178 115.4048 244.7066 15.08841235 27331,6917.877,95.437,540.557,538.927,0.0
54781.0,STARLINK-5443,PAYLOAD,2023-06-02 11:57:38,15.08833078,0.0001232,53.2187,248.5597,108.8509,251.2617,-2.6411e-05,-7.08e-06,0.0,0 STARLINK-5443,1 54781U 22175Z   23153.49835962 -.00000708  00000-0 -26411-4 0  9997,2 54781  53.2187 248.5597 0001232 108.8509 251.2617 15.08833078 27479,6917.902,95.438,540.619,538.914,0.0
54781.0,STARLINK-5443,PAYLOAD,2023-06-02 15:08:24,15.08833894,0.0001257,53.219,247.9639,107.7563,252.3566,-1.8423e-05,-5.81e-06,0.0,0 STARLINK-5443,1 54781U 22175Z   23153.63083909 -.00000581  00000-0 -18423-4 0  9992,2 54781  53.2190 247.9639 0001257 107.7563 252.3566 15.08833894 25332,6917.899,95.438,540.634,538.894,0.0
54781.0,STARLINK-5443,PAYLOAD,2023-06-03 13:23:48,15.08839361,0.0001349,53.2182,243.7993,99.6179,260.4965,3.1077e-05,2.07e-06,0.0,0 STARLINK-5443,1 54781U 22175Z   23154.55819855  .00000207  00000-0  31077-4 0  9994,2 54781  53.2182 243.7993 0001349  99.6179 260.4965 15.08839361 27637,6917.882,95.438,540.681,538.814,0.0
54781.0,STARLINK-5443,PAYLOAD,2023-06-03 16:34:34,15.08842579,0.0001075,53.2182,243.1993,100.3506,259.7607,1.3358e-05,-7.5e-07,0.0,0 STARLINK-5443,1 54781U 22175Z   23154.69067681 -.00000075  00000-0  13358-4 0  9997,2 54781  53.2182 243.1993 0001075 100.3506 259.7607 15.08842579 25492,6917.873,95.437,540.481,538.994,0.0
54781.0,STARLINK-5443,PAYLOAD,2023-06-04 13:14:35,15.08841362,0.000101,53.2176,239.3357,82.8196,277.2911,0.00013605,1.878e-05,0.0,0 STARLINK-5443,1 54781U 22175Z   23155.55179669  .00001878  00000-0  13605-3 0  9998,2 54781  53.2176 239.3357 0001010  82.8196 277.2911 15.08841362 27780,6917.876,95.437,540.44,539.043,0.0
54781.0,STARLINK-5443,PAYLOAD,2023-06-04 22:46:54,15.08838675,9.72e-05,53.2169,237.5505,85.2416,274.8687,0.00010454,1.376e-05,0.0,0 STARLINK-5443,1 54781U 22175Z   23155.94923917  .00001376  00000-0  10454-3 0  9996,2 54781  53.2169 237.5505 0000972  85.2416 274.8687 15.08838675 25688,6917.884,95.438,540.422,539.077,0.0
54781.0,STARLINK-5443,PAYLOAD,2023-06-05 13:05:22,15.08842513,9.11e-05,53.2164,234.874,91.0214,269.0882,5.2443e-05,5.47e-06,0.0,0 STARLINK-5443,1 54781U 22175Z   23156.54539873  .00000547  00000-0  52443-4 0  9991,2 54781  53.2164 234.8740 0000911  91.0214 269.0882 15.08842513 27937,6917.873,95.437,540.368,539.107,0.0
54781.0,STARLINK-5443,PAYLOAD,2023-06-05 14:40:45,15.08843865,9.36e-05,53.2166,234.5773,88.2242,271.8857,6.434e-05,7.36e-06,0.0,0 STARLINK-5443,1 54781U 22175Z   23156.61163754  .00000736  00000-0  64340-4 0  9999,2 54781  53.2166 234.5773 0000936  88.2242 271.8857 15.08843865 27943,6917.869,95.437,540.381,539.086,0.0
54781.0,STARLINK-5443,PAYLOAD,2023-06-06 08:10:00,15.0884201,0.0001001,53.2165,231.306,86.424,273.6866,2.4052e-05,9.5e-07,0.0,0 STARLINK-5443,1 54781U 22175Z   23157.34027906  .00000095  00000-0  24052-4 0  9992,2 54781  53.2165 231.3060 0001001  86.4240 273.6866 15.08842010 25891,6917.874,95.437,540.432,539.047,0.0
54781.0,STARLINK-5443,PAYLOAD,2023-06-06 11:20:46,15.08846353,9.58e-05,53.2167,230.7108,91.6133,268.4969,2.0977e-05,4.6e-07,0.0,0 STARLINK-5443,1 54781U 22175Z   23157.47275603  .00000046  00000-0  20977-4 0  9993,2 54781  53.2167 230.7108 0000958  91.6133 268.4969 15.08846353 28071,6917.861,95.437,540.389,539.063,0.0
54781.0,STARLINK-5443,PAYLOAD,2023-06-06 14:31:32,15.08850771,0.0001085,53.217,230.1164,95.4084,264.7032,2.2518e-05,7.1e-07,0.0,0 STARLINK-5443,1 54781U 22175Z   23157.60523244  .00000071  00000-0  22518-4 0  9996,2 54781  53.2170 230.1164 0001085  95.4084 264.7032 15.08850771 25931,6917.847,95.437,540.463,538.962,0.0
54781.0,STARLINK-5443,PAYLOAD,2023-06-07 08:00:47,15.08837643,9.77e-05,53.2161,226.8458,86.5903,273.5201,4.1939e-05,3.8e-06,0.0,0 STARLINK-5443,1 54781U 22175Z   23158.33387998  .00000380  00000-0  41939-4 0  9992,2 54781  53.2161 226.8458 0000977  86.5903 273.5201 15.08837643 26041,6917.888,95.438,540.428,539.077,0.0
54781.0,STARLINK-5443,PAYLOAD,2023-06-07 14:22:19,15.08841415,9.39e-05,53.2167,225.6567,81.7653,278.3445,4.7971e-05,4.76e-06,0.0,0 STARLINK-5443,1 54781U 22175Z   23158.59883763  .00000476  00000-0  47971-4 0  9999,2 54781  53.2167 225.6567 0000939  81.7653 278.3445 15.08841415 28241,6917.876,95.437,540.391,539.091,0.0
54781.0,STARLINK-5443,PAYLOAD,2023-06-08 09:26:57,15.08837194,0.0001044,53.2174,222.0892,88.6925,271.4186,7.8869e-06,-1.62e-06,0.0,0 STARLINK-5443,1 54781U 22175Z   23159.39372247 -.00000162  00000-0  78869-5 0  9992,2 54781  53.2174 222.0892 0001044  88.6925 271.4186 15.08837194 26206,6917.889,95.438,540.476,539.032,0.0
54781.0,STARLINK-5443,PAYLOAD,2023-06-08 11:02:20,15.08838855,0.0001032,53.2173,221.7922,86.2512,273.8598,-5.0296e-07,-2.96e-06,0.0,0 STARLINK-5443,1 54781U 22175Z   23159.45996183 -.00000296  00000-0 -50296-6 0  9994,2 54781  53.2173 221.7922 0001032  86.2512 273.8598 15.08838855 28376,6917.884,95.438,540.463,539.035,0.0
54781.0,STARLINK-5443,PAYLOAD,2023-06-09 10:53:07,15.08838879,0.0001124,53.2181,217.3324,97.9607,262.1512,4.98e-05,5.05e-06,0.0,0 STARLINK-5443,1 54781U 22175Z   23160.45356120  .00000505  00000-0  49800-4 0  9995,2 54781  53.2181 217.3324 0001124  97.9607 262.1512 15.08838879 26368,6917.884,95.438,540.526,538.971,0.0
54781.0,STARLINK-5443,PAYLOAD,2023-06-09 20:25:26,15.08833417,0.0001026,53.2171,215.5483,95.8018,264.3092,3.9404e-05,3.39e-06,0.0,0 STARLINK-5443,1 54781U 22175Z   23160.85100558  .00000339  00000-0  39404-4 0  9995,2 54781  53.2171 215.5483 0001026  95.8018 264.3092 15.08833417 28583,6917.901,95.438,540.475,539.056,0.0
54781.0,STARLINK-5443,PAYLOAD,2023-06-10 10:43:55,15.08834385,9.91e-05,53.2168,212.8712,91.8053,268.3053,2.6172e-05,1.29e-06,0.0,0 STARLINK-5443,1 54781U 22175Z   23161.44716738  .00000129  00000-0  26172-4 0  9999,2 54781  53.2168 212.8712 0000991  91.8053 268.3053 15.08834385 26516,6917.898,95.438,540.448,539.077,0.0
54781.0,STARLINK-5443,PAYLOAD,2023-06-10 12:19:18,15.08835988,0.0001007,53.2169,212.5737,90.8134,269.2974,3.7996e-05,3.17e-06,0.0,0 STARLINK-5443,1 54781U 22175Z   23161.51340630  .00000317  00000-0  37996-4 0  9996,2 54781  53.2169 212.5737 0001007  90.8134 269.2974 15.08835988 28681,6917.893,95.438,540.454,539.061,0.0
54781.0,STARLINK-5443,PAYLOAD,2023-06-10 20:16:14,15.08836917,0.0001003,53.217,211.0869,88.8855,271.2252,2.6351e-05,1.32e-06,0.0,0 STARLINK-5443,1 54781U 22175Z   23161.84460684  .00000132  00000-0  26351-4 0  9992,2 54781  53.2170 211.0869 0001003  88.8855 271.2252 15.08836917 28737,6917.89,95.438,540.449,539.061,0.0
54781.0,STARLINK-5443,PAYLOAD,2023-06-11 12:10:05,15.08838138,9.77e-05,53.2166,208.113,86.1477,273.9627,2.9495e-05,1.82e-06,0.0,0 STARLINK-5443,1 54781U 22175Z   23162.50700755  .00000182  00000-0  29495-4 0  9999,2 54781  53.2166 208.1130 0000977  86.1477 273.9627 15.08838138 28833,6917.886,95.438,540.427,539.075,0.0
54781.0,STARLINK-5443,PAYLOAD,2023-06-11 15:20:51,15.08841687,9.87e-05,53.2165,207.5182,85.533,274.5775,5.8402e-05,6.42e-06,0.0,0 STARLINK-5443,1 54781U 22175Z   23162.63948461  .00000642  00000-0  58402-4 0  9992,2 54781  53.2165 207.5182 0000987  85.5330 274.5775 15.08841687 26690,6917.875,95.437,540.423,539.057,0.0
54781.0,STARLINK-5443,PAYLOAD,2023-06-11 20:07:00,15.08839891,9.98e-05,53.2168,206.6261,85.4733,274.6373,7.065e-05,8.37e-06,0.0,0 STARLINK-5443,1 54781U 22175Z   23162.83820551  .00000837  00000-0  70650-4 0  9998,2 54781  53.2168 206.6261 0000998  85.4733 274.6373 15.08839891 28881,6917.881,95.438,540.436,539.055,0.0
54781.0,STARLINK-5443,PAYLOAD,2023-06-12 08:50:05,15.08843568,9.73e-05,53.2167,204.2468,85.7341,274.3763,0.00011669,1.57e-05,0.0,0 STARLINK-5443,1 54781U 22175Z   23163.36812143  .00001570  00000-0  11669-3 0  9994,2 54781  53.2167 204.2468 0000973  85.7341 274.3763 15.08843568 28969,6917.869,95.437,540.408,539.061,0.0
